CCSDS_OMM_VERS = 2.0
CREATION_DATE  = 
ORIGINATOR     = 

OBJECT_NAME    = STARLINK-36449
OBJECT_ID      = 2026-002D
CENTER_NAME    = EARTH
REF_FRAME      = TEME
TIME_SYSTEM    = UTC
MEAN_ELEMENT_THEORY = SGP/SGP4

EPOCH          = 2026-01-25T04:00:00.999936
MEAN_MOTION    = 15.68471782
ECCENTRICITY   = .000149
INCLINATION    = 42.9995
RA_OF_ASC_NODE = 213.9112
ARG_OF_PERICENTER = 262.2528
MEAN_ANOMALY   = 323.0662

EPHEMERIS_TYPE = 0
CLASSIFICATION_TYPE = U
NORAD_CAT_ID   = 67308
ELEMENT_SET_NO = 999
REV_AT_EPOCH   = 448
BSTAR          = -.2001E-1
MEAN_MOTION_DOT = -.2043776E-1
MEAN_MOTION_DDOT = 0

CCSDS_OMM_VERS = 2.0
CREATION_DATE  = 
ORIGINATOR     = 

OBJECT_NAME    = STARLINK-36482
OBJECT_ID      = 2026-002E
CENTER_NAME    = EARTH
REF_FRAME      = TEME
TIME_SYSTEM    = UTC
MEAN_ELEMENT_THEORY = SGP/SGP4

EPOCH          = 2026-01-25T04:00:00.999936
MEAN_MOTION    = 15.68476542
ECCENTRICITY   = .0001468
INCLINATION    = 42.9994
RA_OF_ASC_NODE = 213.8883
ARG_OF_PERICENTER = 264.5596
MEAN_ANOMALY   = 330.3415

EPHEMERIS_TYPE = 0
CLASSIFICATION_TYPE = U
NORAD_CAT_ID   = 67309
ELEMENT_SET_NO = 999
REV_AT_EPOCH   = 442
BSTAR          = -.20056E-1
MEAN_MOTION_DOT = -.2048291E-1
MEAN_MOTION_DDOT = 0

CCSDS_OMM_VERS = 2.0
CREATION_DATE  = 
ORIGINATOR     = 

OBJECT_NAME    = STARLINK-36491
OBJECT_ID      = 2026-002F
CENTER_NAME    = EARTH
REF_FRAME      = TEME
TIME_SYSTEM    = UTC
MEAN_ELEMENT_THEORY = SGP/SGP4

EPOCH          = 2026-01-25T04:00:00.999936
MEAN_MOTION    = 15.68476092
ECCENTRICITY   = .000161
INCLINATION    = 42.9995
RA_OF_ASC_NODE = 213.9218
ARG_OF_PERICENTER = 266.9398
MEAN_ANOMALY   = 314.5425

EPHEMERIS_TYPE = 0
CLASSIFICATION_TYPE = U
NORAD_CAT_ID   = 67310
ELEMENT_SET_NO = 999
REV_AT_EPOCH   = 442
BSTAR          = -.20066E-1
MEAN_MOTION_DOT = -.204922E-1
MEAN_MOTION_DDOT = 0

CCSDS_OMM_VERS = 2.0
CREATION_DATE  = 
ORIGINATOR     = 

OBJECT_NAME    = STARLINK-36495
OBJECT_ID      = 2026-002G
CENTER_NAME    = EARTH
REF_FRAME      = TEME
TIME_SYSTEM    = UTC
MEAN_ELEMENT_THEORY = SGP/SGP4

EPOCH          = 2026-01-25T04:00:00.999936
MEAN_MOTION    = 15.68469218
ECCENTRICITY   = .0001506
INCLINATION    = 42.9995
RA_OF_ASC_NODE = 213.9066
ARG_OF_PERICENTER = 265.0819
MEAN_ANOMALY   = 322.1532

EPHEMERIS_TYPE = 0
CLASSIFICATION_TYPE = U
NORAD_CAT_ID   = 67311
ELEMENT_SET_NO = 999
REV_AT_EPOCH   = 457
BSTAR          = -.19958E-1
MEAN_MOTION_DOT = -.2038992E-1
MEAN_MOTION_DDOT = 0

CCSDS_OMM_VERS = 2.0
CREATION_DATE  = 
ORIGINATOR     = 

OBJECT_NAME    = STARLINK-36485
OBJECT_ID      = 2026-002H
CENTER_NAME    = EARTH
REF_FRAME      = TEME
TIME_SYSTEM    = UTC
MEAN_ELEMENT_THEORY = SGP/SGP4

EPOCH          = 2026-01-25T04:00:00.999936
MEAN_MOTION    = 15.68486504
ECCENTRICITY   = .0001644
INCLINATION    = 42.9994
RA_OF_ASC_NODE = 213.9019
ARG_OF_PERICENTER = 268.9230
MEAN_ANOMALY   = 320.2258

EPHEMERIS_TYPE = 0
CLASSIFICATION_TYPE = U
NORAD_CAT_ID   = 67312
ELEMENT_SET_NO = 999
REV_AT_EPOCH   = 442
BSTAR          = -.20244E-1
MEAN_MOTION_DOT = -.2065938E-1
MEAN_MOTION_DDOT = 0

CCSDS_OMM_VERS = 2.0
CREATION_DATE  = 
ORIGINATOR     = 

OBJECT_NAME    = STARLINK-36445
OBJECT_ID      = 2026-002J
CENTER_NAME    = EARTH
REF_FRAME      = TEME
TIME_SYSTEM    = UTC
MEAN_ELEMENT_THEORY = SGP/SGP4

EPOCH          = 2026-01-25T04:00:00.999936
MEAN_MOTION    = 15.68476170
ECCENTRICITY   = .0001704
INCLINATION    = 42.9995
RA_OF_ASC_NODE = 213.8965
ARG_OF_PERICENTER = 265.8351
MEAN_ANOMALY   = 325.2329

EPHEMERIS_TYPE = 0
CLASSIFICATION_TYPE = U
NORAD_CAT_ID   = 67313
ELEMENT_SET_NO = 999
REV_AT_EPOCH   = 457
BSTAR          = -.20073E-1
MEAN_MOTION_DOT = -.2049987E-1
MEAN_MOTION_DDOT = 0

CCSDS_OMM_VERS = 2.0
CREATION_DATE  = 
ORIGINATOR     = 

OBJECT_NAME    = STARLINK-36476
OBJECT_ID      = 2026-002K
CENTER_NAME    = EARTH
REF_FRAME      = TEME
TIME_SYSTEM    = UTC
MEAN_ELEMENT_THEORY = SGP/SGP4

EPOCH          = 2026-01-25T04:00:00.999936
MEAN_MOTION    = 15.68468111
ECCENTRICITY   = .0001538
INCLINATION    = 42.9994
RA_OF_ASC_NODE = 213.8926
ARG_OF_PERICENTER = 265.5460
MEAN_ANOMALY   = 327.4414

EPHEMERIS_TYPE = 0
CLASSIFICATION_TYPE = U
NORAD_CAT_ID   = 67314
ELEMENT_SET_NO = 999
REV_AT_EPOCH   = 442
BSTAR          = -.19944E-1
MEAN_MOTION_DOT = -.2037693E-1
MEAN_MOTION_DDOT = 0

CCSDS_OMM_VERS = 2.0
CREATION_DATE  = 
ORIGINATOR     = 

OBJECT_NAME    = STARLINK-36463
OBJECT_ID      = 2026-002L
CENTER_NAME    = EARTH
REF_FRAME      = TEME
TIME_SYSTEM    = UTC
MEAN_ELEMENT_THEORY = SGP/SGP4

EPOCH          = 2026-01-25T04:00:00.999936
MEAN_MOTION    = 15.68477258
ECCENTRICITY   = .0001494
INCLINATION    = 42.9994
RA_OF_ASC_NODE = 213.8825
ARG_OF_PERICENTER = 268.3657
MEAN_ANOMALY   = 328.4483

EPHEMERIS_TYPE = 0
CLASSIFICATION_TYPE = U
NORAD_CAT_ID   = 67315
ELEMENT_SET_NO = 999
REV_AT_EPOCH   = 448
BSTAR          = -.20031E-1
MEAN_MOTION_DOT = -.2046091E-1
MEAN_MOTION_DDOT = 0

CCSDS_OMM_VERS = 2.0
CREATION_DATE  = 
ORIGINATOR     = 

OBJECT_NAME    = STARLINK-36461
OBJECT_ID      = 2026-002M
CENTER_NAME    = EARTH
REF_FRAME      = TEME
TIME_SYSTEM    = UTC
MEAN_ELEMENT_THEORY = SGP/SGP4

EPOCH          = 2026-01-25T04:00:00.999936
MEAN_MOTION    = 15.68482168
ECCENTRICITY   = .0001585
INCLINATION    = 42.9995
RA_OF_ASC_NODE = 213.8773
ARG_OF_PERICENTER = 266.2576
MEAN_ANOMALY   = 332.4787

EPHEMERIS_TYPE = 0
CLASSIFICATION_TYPE = U
NORAD_CAT_ID   = 67316
ELEMENT_SET_NO = 999
REV_AT_EPOCH   = 457
BSTAR          = -.20176E-1
MEAN_MOTION_DOT = -.2059535E-1
MEAN_MOTION_DDOT = 0

CCSDS_OMM_VERS = 2.0
CREATION_DATE  = 
ORIGINATOR     = 

OBJECT_NAME    = STARLINK-36450
OBJECT_ID      = 2026-002N
CENTER_NAME    = EARTH
REF_FRAME      = TEME
TIME_SYSTEM    = UTC
MEAN_ELEMENT_THEORY = SGP/SGP4

EPOCH          = 2026-01-25T04:00:00.999936
MEAN_MOTION    = 15.68472764
ECCENTRICITY   = .0001542
INCLINATION    = 42.9996
RA_OF_ASC_NODE = 213.8729
ARG_OF_PERICENTER = 265.9040
MEAN_ANOMALY   = 334.7540

EPHEMERIS_TYPE = 0
CLASSIFICATION_TYPE = U
NORAD_CAT_ID   = 67317
ELEMENT_SET_NO = 999
REV_AT_EPOCH   = 457
BSTAR          = -.20047E-1
MEAN_MOTION_DOT = -.2047263E-1
MEAN_MOTION_DDOT = 0

CCSDS_OMM_VERS = 2.0
CREATION_DATE  = 
ORIGINATOR     = 

OBJECT_NAME    = STARLINK-36498
OBJECT_ID      = 2026-002P
CENTER_NAME    = EARTH
REF_FRAME      = TEME
TIME_SYSTEM    = UTC
MEAN_ELEMENT_THEORY = SGP/SGP4

EPOCH          = 2026-01-25T04:00:00.999936
MEAN_MOTION    = 15.68474297
ECCENTRICITY   = .0001553
INCLINATION    = 42.9995
RA_OF_ASC_NODE = 213.8622
ARG_OF_PERICENTER = 265.9921
MEAN_ANOMALY   = 338.4946

EPHEMERIS_TYPE = 0
CLASSIFICATION_TYPE = U
NORAD_CAT_ID   = 67318
ELEMENT_SET_NO = 999
REV_AT_EPOCH   = 448
BSTAR          = -.20028E-1
MEAN_MOTION_DOT = -.204561E-1
MEAN_MOTION_DDOT = 0

CCSDS_OMM_VERS = 2.0
CREATION_DATE  = 
ORIGINATOR     = 

OBJECT_NAME    = STARLINK-36470
OBJECT_ID      = 2026-002Q
CENTER_NAME    = EARTH
REF_FRAME      = TEME
TIME_SYSTEM    = UTC
MEAN_ELEMENT_THEORY = SGP/SGP4

EPOCH          = 2026-01-25T04:00:00.999936
MEAN_MOTION    = 15.68480353
ECCENTRICITY   = .0001588
INCLINATION    = 42.9995
RA_OF_ASC_NODE = 213.8679
ARG_OF_PERICENTER = 266.2329
MEAN_ANOMALY   = 336.3304

EPHEMERIS_TYPE = 0
CLASSIFICATION_TYPE = U
NORAD_CAT_ID   = 67319
ELEMENT_SET_NO = 999
REV_AT_EPOCH   = 448
BSTAR          = -.20065E-1
MEAN_MOTION_DOT = -.2049434E-1
MEAN_MOTION_DDOT = 0

