STARLINK-36449          
1 67308U 26002D   26025.16667824 -.02043776  00000+0 -20010-1 0  9993
2 67308  42.9995 213.9112 0001490 262.2528 323.0662 15.68471782  4481
STARLINK-36482          
1 67309U 26002E   26025.16667824 -.02048291  00000+0 -20056-1 0  9991
2 67309  42.9994 213.8883 0001468 264.5596 330.3415 15.68476542  4420
STARLINK-36491          
1 67310U 26002F   26025.16667824 -.02049220  00000+0 -20066-1 0  9997
2 67310  42.9995 213.9218 0001610 266.9398 314.5425 15.68476092  4426
STARLINK-36495          
1 67311U 26002G   26025.16667824 -.02038992  00000+0 -19958-1 0  9990
2 67311  42.9995 213.9066 0001506 265.0819 322.1532 15.68469218  4572
STARLINK-36485          
1 67312U 26002H   26025.16667824 -.02065938  00000+0 -20244-1 0  9991
2 67312  42.9994 213.9019 0001644 268.9230 320.2258 15.68486504  4427
STARLINK-36445          
1 67313U 26002J   26025.16667824 -.02049987  00000+0 -20073-1 0  9998
2 67313  42.9995 213.8965 0001704 265.8351 325.2329 15.68476170  4573
STARLINK-36476          
1 67314U 26002K   26025.16667824 -.02037693  00000+0 -19944-1 0  9995
2 67314  42.9994 213.8926 0001538 265.5460 327.4414 15.68468111  4422
STARLINK-36463          
1 67315U 26002L   26025.16667824 -.02046091  00000+0 -20031-1 0  9997
2 67315  42.9994 213.8825 0001494 268.3657 328.4483 15.68477258  4486
STARLINK-36461          
1 67316U 26002M   26025.16667824 -.02059535  00000+0 -20176-1 0  9995
2 67316  42.9995 213.8773 0001585 266.2576 332.4787 15.68482168  4576
STARLINK-36450          
1 67317U 26002N   26025.16667824 -.02047263  00000+0 -20047-1 0  9998
2 67317  42.9996 213.8729 0001542 265.9040 334.7540 15.68472764  4577
STARLINK-36498          
1 67318U 26002P   26025.16667824 -.02045610  00000+0 -20028-1 0  9992
2 67318  42.9995 213.8622 0001553 265.9921 338.4946 15.68474297  4483
STARLINK-36470          
1 67319U 26002Q   26025.16667824 -.02049434  00000+0 -20065-1 0  9992
2 67319  42.9995 213.8679 0001588 266.2329 336.3304 15.68480353  4485
